{"type": "FeatureCollection", "features": [ {"type": "Feature", "properties": {"norad_id": 67133, "name": "KUIPER-00144", "group": "last-30-days", "lat": -46.71470529946101, "lon": -69.0308701255631, "alt_km": 466.1757805919242, "timestamp": "2025-12-27T09:28:55.187583+00:00", "meta": {"OBJECT_NAME": "KUIPER-00144", "OBJECT_ID": "2025-301A", "EPOCH": "2025-12-27T03:43:19.382880", "MEAN_MOTION": 15.35497564, "ECCENTRICITY": 0.0006236, "INCLINATION": 51.8708, "RA_OF_ASC_NODE": 55.6194, "ARG_OF_PERICENTER": 124.7147, "MEAN_ANOMALY": 235.4427, "EPHEMERIS_TYPE": 0, "CLASSIFICATION_TYPE": "U", "NORAD_CAT_ID": 67133, "ELEMENT_SET_NO": 999, "REV_AT_EPOCH": 258, "BSTAR": 0.0007299, "MEAN_MOTION_DOT": 0.00025279, "MEAN_MOTION_DDOT": 0}, "tle": {"line1": "1 67133U 25301A   25361.15508545  .00025279  00000+0  72990-3 0  9995", "line2": "2 67133  51.8708  55.6194 0006236 124.7147 235.4427 15.35497564  2585"}}, "geometry": {"type": "Point", "coordinates": [-69.0308701255631, -46.71470529946101]}}, {"type": "Feature", "properties": {"norad_id": 67134, "name": "KUIPER-00164", "group": "last-30-days", "lat": -51.361892808990284, "lon": -24.874327999557764, "alt_km": 464.1901874933028, "timestamp": "2025-12-27T09:28:55.187593+00:00", "meta": {"OBJECT_NAME": "KUIPER-00164", "OBJECT_ID": "2025-301B", "EPOCH": "2025-12-27T03:35:55.279104", "MEAN_MOTION": 15.36181048, "ECCENTRICITY": 0.0003211, "INCLINATION": 51.873, "RA_OF_ASC_NODE": 55.5848, "ARG_OF_PERICENTER": 105.9096, "MEAN_ANOMALY": 254.2244, "EPHEMERIS_TYPE": 0, "CLASSIFICATION_TYPE": "U", "NORAD_CAT_ID": 67134, "ELEMENT_SET_NO": 999, "REV_AT_EPOCH": 276, "BSTAR": 0.00052153, "MEAN_MOTION_DOT": 0.00018332, "MEAN_MOTION_DDOT": 0}, "tle": {"line1": "1 67134U 25301B   25361.14994536  .00018332  00000+0  52153-3 0  9995", "line2": "2 67134  51.8730  55.5848 0003211 105.9096 254.2244 15.36181048  2764"}}, "geometry": {"type": "Point", "coordinates": [-24.874327999557764, -51.361892808990284]}}, {"type": "Feature", "properties": {"norad_id": 67135, "name": "KUIPER-00175", "group": "last-30-days", "lat": -44.94002580667982, "lon": 2.752004977827474, "alt_km": 461.2034155663314, "timestamp": "2025-12-27T09:28:55.187605+00:00", "meta": {"OBJECT_NAME": "KUIPER-00175", "OBJECT_ID": "2025-301C", "EPOCH": "2025-12-27T03:30:57.672576", "MEAN_MOTION": 15.36649318, "ECCENTRICITY": 0.0002289, "INCLINATION": 51.8745, "RA_OF_ASC_NODE": 55.5567, "ARG_OF_PERICENTER": 55.9273, "MEAN_ANOMALY": 304.193, "EPHEMERIS_TYPE": 0, "CLASSIFICATION_TYPE": "U", "NORAD_CAT_ID": 67135, "ELEMENT_SET_NO": 999, "REV_AT_EPOCH": 265, "BSTAR": 0.0010967, "MEAN_MOTION_DOT": 0.00039684, "MEAN_MOTION_DDOT": 0}, "tle": {"line1": "1 67135U 25301C   25361.14650084  .00039684  00000+0  10967-2 0  9992", "line2": "2 67135  51.8745  55.5567 0002289  55.9273 304.1930 15.36649318  2658"}}, "geometry": {"type": "Point", "coordinates": [2.752004977827474, -44.94002580667982]}}, {"type": "Feature", "properties": {"norad_id": 67136, "name": "KUIPER-00179", "group": "last-30-days", "lat": -49.74269526136314, "lon": -13.661831116936021, "alt_km": 463.8922365471244, "timestamp": "2025-12-27T09:28:55.187616+00:00", "meta": {"OBJECT_NAME": "KUIPER-00179", "OBJECT_ID": "2025-301D", "EPOCH": "2025-12-27T03:34:02.489088", "MEAN_MOTION": 15.36290989, "ECCENTRICITY": 0.0003317, "INCLINATION": 51.8746, "RA_OF_ASC_NODE": 55.5734, "ARG_OF_PERICENTER": 105.3598, "MEAN_ANOMALY": 254.7755, "EPHEMERIS_TYPE": 0, "CLASSIFICATION_TYPE": "U", "NORAD_CAT_ID": 67136, "ELEMENT_SET_NO": 999, "REV_AT_EPOCH": 276, "BSTAR": 0.0010797, "MEAN_MOTION_DOT": 0.00038606, "MEAN_MOTION_DDOT": 0}, "tle": {"line1": "1 67136U 25301D   25361.14863992  .00038606  00000+0  10797-2 0  9991", "line2": "2 67136  51.8746  55.5734 0003317 105.3598 254.7755 15.36290989  2762"}}, "geometry": {"type": "Point", "coordinates": [-13.661831116936021, -49.74269526136314]}}, {"type": "Feature", "properties": {"norad_id": 67137, "name": "KUIPER-00181", "group": "last-30-days", "lat": -20.76667383844027, "lon": -108.11976106591632, "alt_km": 462.0301199781916, "timestamp": "2025-12-27T09:28:55.187626+00:00", "meta": {"OBJECT_NAME": "KUIPER-00181", "OBJECT_ID": "2025-301E", "EPOCH": "2025-12-27T03:53:47.609376", "MEAN_MOTION": 15.34490362, "ECCENTRICITY": 0.0009917, "INCLINATION": 51.8649, "RA_OF_ASC_NODE": 55.6689, "ARG_OF_PERICENTER": 145.5501, "MEAN_ANOMALY": 214.6129, "EPHEMERIS_TYPE": 0, "CLASSIFICATION_TYPE": "U", "NORAD_CAT_ID": 67137, "ELEMENT_SET_NO": 999, "REV_AT_EPOCH": 274, "BSTAR": 0.0010794, "MEAN_MOTION_DOT": 0.0003646, "MEAN_MOTION_DDOT": 0}, "tle": {"line1": "1 67137U 25301E   25361.16235659  .00036460  00000+0  10794-2 0  9990", "line2": "2 67137  51.8649  55.6689 0009917 145.5501 214.6129 15.34490362  2740"}}, "geometry": {"type": "Point", "coordinates": [-108.11976106591632, -20.76667383844027]}}, {"type": "Feature", "properties": {"norad_id": 67138, "name": "KUIPER-00183", "group": "last-30-days", "lat": -10.464882622381554, "lon": -117.08296771383891, "alt_km": 459.56556633622586, "timestamp": "2025-12-27T09:28:55.187637+00:00", "meta": {"OBJECT_NAME": "KUIPER-00183", "OBJECT_ID": "2025-301F", "EPOCH": "2025-12-27T03:57:13.199904", "MEAN_MOTION": 15.341526, "ECCENTRICITY": 0.001122, "INCLINATION": 51.8627, "RA_OF_ASC_NODE": 55.6817, "ARG_OF_PERICENTER": 151.8896, "MEAN_ANOMALY": 208.2697, "EPHEMERIS_TYPE": 0, "CLASSIFICATION_TYPE": "U", "NORAD_CAT_ID": 67138, "ELEMENT_SET_NO": 999, "REV_AT_EPOCH": 275, "BSTAR": 0.0011119, "MEAN_MOTION_DOT": 0.00037183, "MEAN_MOTION_DDOT": 0}, "tle": {"line1": "1 67138U 25301F   25361.16473611  .00037183  00000+0  11119-2 0  9998", "line2": "2 67138  51.8627  55.6817 0011220 151.8896 208.2697 15.34152600  2757"}}, "geometry": {"type": "Point", "coordinates": [-117.08296771383891, -10.464882622381554]}}, {"type": "Feature", "properties": {"norad_id": 67139, "name": "KUIPER-00184", "group": "last-30-days", "lat": -23.8559581119667, "lon": -105.13041140375279, "alt_km": 463.51175205347135, "timestamp": "2025-12-27T09:28:55.187653+00:00", "meta": {"OBJECT_NAME": "KUIPER-00184", "OBJECT_ID": "2025-301G", "EPOCH": "2025-12-27T03:52:40.874016", "MEAN_MOTION": 15.34393533, "ECCENTRICITY": 0.000777, "INCLINATION": 51.8638, "RA_OF_ASC_NODE": 55.6634, "ARG_OF_PERICENTER": 146.9301, "MEAN_ANOMALY": 213.2171, "EPHEMERIS_TYPE": 0, "CLASSIFICATION_TYPE": "U", "NORAD_CAT_ID": 67139, "ELEMENT_SET_NO": 999, "REV_AT_EPOCH": 286, "BSTAR": 0.0013269, "MEAN_MOTION_DOT": 0.00044791, "MEAN_MOTION_DDOT": 0}, "tle": {"line1": "1 67139U 25301G   25361.16158419  .00044791  00000+0  13269-2 0  9996", "line2": "2 67139  51.8638  55.6634 0007770 146.9301 213.2171 15.34393533  2865"}}, "geometry": {"type": "Point", "coordinates": [-105.13041140375279, -23.8559581119667]}}, {"type": "Feature", "properties": {"norad_id": 67140, "name": "KUIPER-00186", "group": "last-30-days", "lat": -38.073023051631885, "lon": -87.52849350518662, "alt_km": 465.40567932567046, "timestamp": "2025-12-27T09:28:55.187663+00:00", "meta": {"OBJECT_NAME": "KUIPER-00186", "OBJECT_ID": "2025-301H", "EPOCH": "2025-12-27T03:47:26.435904", "MEAN_MOTION": 15.3507261, "ECCENTRICITY": 0.0007654, "INCLINATION": 51.8688, "RA_OF_ASC_NODE": 55.6381, "ARG_OF_PERICENTER": 134.2705, "MEAN_ANOMALY": 225.891, "EPHEMERIS_TYPE": 0, "CLASSIFICATION_TYPE": "U", "NORAD_CAT_ID": 67140, "ELEMENT_SET_NO": 999, "REV_AT_EPOCH": 258, "BSTAR": 0.00072414, "MEAN_MOTION_DOT": 0.0002474, "MEAN_MOTION_DDOT": 0}, "tle": {"line1": "1 67140U 25301H   25361.15794486  .00024740  00000+0  72414-3 0  9997", "line2": "2 67140  51.8688  55.6381 0007654 134.2705 225.8910 15.35072610  2580"}}, "geometry": {"type": "Point", "coordinates": [-87.52849350518662, -38.073023051631885]}}, {"type": "Feature", "properties": {"norad_id": 67141, "name": "KUIPER-00187", "group": "last-30-days", "lat": -51.41125285938405, "lon": -45.7315457772535, "alt_km": 465.30482535687315, "timestamp": "2025-12-27T09:28:55.187673+00:00", "meta": {"OBJECT_NAME": "KUIPER-00187", "OBJECT_ID": "2025-301J", "EPOCH": "2025-12-27T03:39:14.871744", "MEAN_MOTION": 15.35878538, "ECCENTRICITY": 0.0004394, "INCLINATION": 51.8717, "RA_OF_ASC_NODE": 55.6014, "ARG_OF_PERICENTER": 119.9625, "MEAN_ANOMALY": 240.1797, "EPHEMERIS_TYPE": 0, "CLASSIFICATION_TYPE": "U", "NORAD_CAT_ID": 67141, "ELEMENT_SET_NO": 999, "REV_AT_EPOCH": 258, "BSTAR": 0.00084037, "MEAN_MOTION_DOT": 0.00029533, "MEAN_MOTION_DDOT": 0}, "tle": {"line1": "1 67141U 25301J   25361.15225546  .00029533  00000+0  84037-3 0  9993", "line2": "2 67141  51.8717  55.6014 0004394 119.9625 240.1797 15.35878538  2582"}}, "geometry": {"type": "Point", "coordinates": [-45.7315457772535, -51.41125285938405]}}, {"type": "Feature", "properties": {"norad_id": 67142, "name": "KUIPER-00188", "group": "last-30-days", "lat": -35.62608718123891, "lon": -91.24014945496971, "alt_km": 464.67909527371467, "timestamp": "2025-12-27T09:28:55.187683+00:00", "meta": {"OBJECT_NAME": "KUIPER-00188", "OBJECT_ID": "2025-301K", "EPOCH": "2025-12-27T02:14:40.439040", "MEAN_MOTION": 15.34984599, "ECCENTRICITY": 0.0007692, "INCLINATION": 51.8703, "RA_OF_ASC_NODE": 55.957, "ARG_OF_PERICENTER": 139.3516, "MEAN_ANOMALY": 220.8045, "EPHEMERIS_TYPE": 0, "CLASSIFICATION_TYPE": "U", "NORAD_CAT_ID": 67142, "ELEMENT_SET_NO": 999, "REV_AT_EPOCH": 257, "BSTAR": 0.00099404, "MEAN_MOTION_DOT": 0.0003405, "MEAN_MOTION_DDOT": 0}, "tle": {"line1": "1 67142U 25301K   25361.09352360  .00034050  00000+0  99404-3 0  9996", "line2": "2 67142  51.8703  55.9570 0007692 139.3516 220.8045 15.34984599  2571"}}, "geometry": {"type": "Point", "coordinates": [-91.24014945496971, -35.62608718123891]}}]}